{
  "norad_id": 68785,
  "name": "STARLINK-37335",
  "history": [
    {
      "epoch": "2026-04-27T14:52:11.634240Z",
      "apogee_km": 284.0201775039868,
      "perigee_km": 283.0971329539998,
      "latitude_deg": -2.40528385211837e-05,
      "longitude_deg": 74.40724003341555,
      "height_km": 287.14552305052024,
      "semi_major_axis_km": 6661.695655228993,
      "eccentricity": 6.928e-05,
      "inclination_deg": 97.2767,
      "raan_deg": 153.0625,
      "arg_perigee_deg": 147.6694,
      "mean_anomaly_deg": 212.4625,
      "mean_motion_rev_day": 15.96708291
    }
  ]
}