STARLINK-37335          
1 68785U 26086V   26117.61957910 -.00836008  22660-3 -19837-2 0  9997
2 68785  97.2767 153.0625 0000692 147.6694 212.4625 15.96708291  1191
